start=new Date('2022-09-02T00:00:00.000Z').valueOf();
sats=[{"TLE_LINE2":"2 52271  53.2159 116.6849 0002009  62.0777  42.7520 15.08843672  1307","MEAN_MOTION_DDOT":"0.0000000000000","COUNTRY_CODE":"US","RA_OF_ASC_NODE":"116.6849","REF_FRAME":"TEME","GP_ID":"211505328","TIME_SYSTEM":"UTC","LAUNCH_DATE":"2022-04-21","OBJECT_TYPE":"PAYLOAD","INCLINATION":"53.2159","EPOCH":"2022-09-01T22:00:00.999936","APOAPSIS":"541.124","EPHEMERIS_TYPE":"0","CENTER_NAME":"EARTH","PERIOD":"95.437","MEAN_MOTION":"15.08843672","MEAN_ANOMALY":"42.7520","SEMIMAJOR_AXIS":"6917.869","NORAD_CAT_ID":"52271","REV_AT_EPOCH":"130","SITE":"AFETR","ARG_OF_PERICENTER":"62.0777","TLE_LINE1":"1 52271U 22041L   22244.91667824 -.00014374  00000-0 -88671-3 0  9997","DECAY_DATE":null,"OBJECT_NAME":"STARLINK-3788","OBJECT_ID":"2022-041L","MEAN_MOTION_DOT":"-0.00014374","FILE":"3554009","MEAN_ELEMENT_THEORY":"SGP4","PERIAPSIS":"538.344","ELEMENT_SET_NO":"999","RCS_SIZE":"LARGE","ECCENTRICITY":"0.00020090","BSTAR":"-0.00088671000000","CLASSIFICATION_TYPE":"U"},{"OBJECT_ID":"2022-041M","MEAN_MOTION_DOT":"-0.00012032","FILE":"3554009","MEAN_ELEMENT_THEORY":"SGP4","PERIAPSIS":"538.382","REV_AT_EPOCH":"130","SITE":"AFETR","ARG_OF_PERICENTER":"61.8294","TLE_LINE1":"1 52272U 22041M   22244.91667824 -.00012032  00000-0 -73912-3 0  9999","DECAY_DATE":null,"OBJECT_NAME":"STARLINK-3781","RCS_SIZE":"LARGE","ECCENTRICITY":"0.00019710","BSTAR":"-0.00073912000000","CLASSIFICATION_TYPE":"U","ELEMENT_SET_NO":"999","GP_ID":"211504577","TIME_SYSTEM":"UTC","LAUNCH_DATE":"2022-04-21","OBJECT_TYPE":"PAYLOAD","TLE_LINE2":"2 52272  53.2169 116.6816 0001971  61.8294  97.8322 15.08840108  1303","MEAN_MOTION_DDOT":"0.0000000000000","COUNTRY_CODE":"US","RA_OF_ASC_NODE":"116.6816","REF_FRAME":"TEME","MEAN_MOTION":"15.08840108","MEAN_ANOMALY":"97.8322","SEMIMAJOR_AXIS":"6917.880","NORAD_CAT_ID":"52272","EPOCH":"2022-09-01T22:00:00.999936","INCLINATION":"53.2169","APOAPSIS":"541.109","EPHEMERIS_TYPE":"0","CENTER_NAME":"EARTH","PERIOD":"95.438"},{"NORAD_CAT_ID":"52273","SEMIMAJOR_AXIS":"6917.864","MEAN_MOTION":"15.08845285","MEAN_ANOMALY":"69.3510","PERIOD":"95.437","EPHEMERIS_TYPE":"0","CENTER_NAME":"EARTH","APOAPSIS":"540.810","EPOCH":"2022-09-01T22:00:00.999936","INCLINATION":"53.2157","OBJECT_TYPE":"PAYLOAD","TIME_SYSTEM":"UTC","LAUNCH_DATE":"2022-04-21","GP_ID":"211504827","COUNTRY_CODE":"US","RA_OF_ASC_NODE":"106.6827","REF_FRAME":"TEME","MEAN_MOTION_DDOT":"0.0000000000000","TLE_LINE2":"2 52273  53.2157 106.6827 0001562  65.3081  69.3510 15.08845285  1305","CLASSIFICATION_TYPE":"U","BSTAR":"-0.00031164000000","ECCENTRICITY":"0.00015620","RCS_SIZE":"LARGE","ELEMENT_SET_NO":"999","FILE":"3554009","MEAN_ELEMENT_THEORY":"SGP4","PERIAPSIS":"538.649","OBJECT_ID":"2022-041N","MEAN_MOTION_DOT":"-0.00005245","OBJECT_NAME":"STARLINK-3782","DECAY_DATE":null,"REV_AT_EPOCH":"130","SITE":"AFETR","ARG_OF_PERICENTER":"65.3081","TLE_LINE1":"1 52273U 22041N   22244.91667824 -.00005245  00000-0 -31164-3 0  9991"},{"RCS_SIZE":"LARGE","CLASSIFICATION_TYPE":"U","BSTAR":"-0.00125470000000","ECCENTRICITY":"0.00018860","ELEMENT_SET_NO":"999","PERIAPSIS":"538.449","MEAN_ELEMENT_THEORY":"SGP4","FILE":"3554009","OBJECT_ID":"2022-041P","MEAN_MOTION_DOT":"-0.00020200","DECAY_DATE":null,"TLE_LINE1":"1 52274U 22041P   22244.91667824 -.00020200  00000-0 -12547-2 0  9993","ARG_OF_PERICENTER":"68.8522","REV_AT_EPOCH":"130","SITE":"AFETR","OBJECT_NAME":"STARLINK-3790","MEAN_ANOMALY":"115.9958","MEAN_MOTION":"15.08837170","NORAD_CAT_ID":"52274","SEMIMAJOR_AXIS":"6917.889","APOAPSIS":"541.059","EPOCH":"2022-09-01T22:00:00.999936","INCLINATION":"53.2167","PERIOD":"95.438","CENTER_NAME":"EARTH","EPHEMERIS_TYPE":"0","LAUNCH_DATE":"2022-04-21","TIME_SYSTEM":"UTC","GP_ID":"211505078","OBJECT_TYPE":"PAYLOAD","MEAN_MOTION_DDOT":"0.0000000000000","TLE_LINE2":"2 52274  53.2167 116.6794 0001886  68.8522 115.9958 15.08837170  1306","RA_OF_ASC_NODE":"116.6794","REF_FRAME":"TEME","COUNTRY_CODE":"US"},{"MEAN_MOTION_DOT":"-0.00033069","OBJECT_ID":"2022-041Q","PERIAPSIS":"538.348","MEAN_ELEMENT_THEORY":"SGP4","FILE":"3554009","ARG_OF_PERICENTER":"61.0467","TLE_LINE1":"1 52275U 22041Q   22244.91667824 -.00033069  00000-0 -20691-2 0  9990","REV_AT_EPOCH":"130","SITE":"AFETR","DECAY_DATE":null,"OBJECT_NAME":"STARLINK-3784","RCS_SIZE":"LARGE","BSTAR":"-0.00206910000000","ECCENTRICITY":"0.00020140","CLASSIFICATION_TYPE":"U","ELEMENT_SET_NO":"999","GP_ID":"211505829","LAUNCH_DATE":"2022-04-21","TIME_SYSTEM":"UTC","OBJECT_TYPE":"PAYLOAD","TLE_LINE2":"2 52275  53.2178 116.6826 0002014  61.0467  83.8232 15.08841453  1309","MEAN_MOTION_DDOT":"0.0000000000000","RA_OF_ASC_NODE":"116.6826","REF_FRAME":"TEME","COUNTRY_CODE":"US","MEAN_ANOMALY":"83.8232","MEAN_MOTION":"15.08841453","SEMIMAJOR_AXIS":"6917.876","NORAD_CAT_ID":"52275","EPOCH":"2022-09-01T22:00:00.999936","INCLINATION":"53.2178","APOAPSIS":"541.134","CENTER_NAME":"EARTH","EPHEMERIS_TYPE":"0","PERIOD":"95.437"},{"FILE":"3554009","MEAN_ELEMENT_THEORY":"SGP4","PERIAPSIS":"538.214","MEAN_MOTION_DOT":"-0.00010383","OBJECT_ID":"2022-041R","OBJECT_NAME":"STARLINK-3778","DECAY_DATE":null,"SITE":"AFETR","REV_AT_EPOCH":"130","TLE_LINE1":"1 52276U 22041R   22244.91667824 -.00010383  00000-0 -63498-3 0  9998","ARG_OF_PERICENTER":"65.0045","CLASSIFICATION_TYPE":"U","ECCENTRICITY":"0.00021740","BSTAR":"-0.00063498000000","RCS_SIZE":"LARGE","ELEMENT_SET_NO":"999","OBJECT_TYPE":"PAYLOAD","TIME_SYSTEM":"UTC","LAUNCH_DATE":"2022-04-21","GP_ID":"211504077","COUNTRY_CODE":"US","RA_OF_ASC_NODE":"116.6921","REF_FRAME":"TEME","MEAN_MOTION_DDOT":"0.0000000000000","TLE_LINE2":"2 52276  53.2178 116.6921 0002174  65.0045 139.8413 15.08848872  1304","NORAD_CAT_ID":"52276","SEMIMAJOR_AXIS":"6917.853","MEAN_MOTION":"15.08848872","MEAN_ANOMALY":"139.8413","PERIOD":"95.437","EPHEMERIS_TYPE":"0","CENTER_NAME":"EARTH","APOAPSIS":"541.222","EPOCH":"2022-09-01T22:00:00.999936","INCLINATION":"53.2178"},{"OBJECT_NAME":"STARLINK-3787","TLE_LINE1":"1 52277U 22041S   22244.91667824 -.00012284  00000-0 -75483-3 0  9998","ARG_OF_PERICENTER":"64.6959","REV_AT_EPOCH":"2163","SITE":"AFETR","DECAY_DATE":null,"OBJECT_ID":"2022-041S","MEAN_MOTION_DOT":"-0.00012284","PERIAPSIS":"538.352","FILE":"3553785","MEAN_ELEMENT_THEORY":"SGP4","ELEMENT_SET_NO":"999","BSTAR":"-0.00075483000000","ECCENTRICITY":"0.00019800","CLASSIFICATION_TYPE":"U","RCS_SIZE":"LARGE","RA_OF_ASC_NODE":"116.6809","REF_FRAME":"TEME","COUNTRY_CODE":"US","TLE_LINE2":"2 52277  53.2166 116.6809 0001980  64.6959 100.1586 15.08847733 21635","MEAN_MOTION_DDOT":"0.0000000000000","OBJECT_TYPE":"PAYLOAD","GP_ID":"211475672","LAUNCH_DATE":"2022-04-21","TIME_SYSTEM":"UTC","CENTER_NAME":"EARTH","EPHEMERIS_TYPE":"0","PERIOD":"95.437","EPOCH":"2022-09-01T22:00:00.999936","INCLINATION":"53.2166","APOAPSIS":"541.091","SEMIMAJOR_AXIS":"6917.857","NORAD_CAT_ID":"52277","MEAN_ANOMALY":"100.1586","MEAN_MOTION":"15.08847733"},{"MEAN_ELEMENT_THEORY":"SGP4","FILE":"3554009","PERIAPSIS":"538.224","MEAN_MOTION_DOT":"-0.00054141","OBJECT_ID":"2022-041T","OBJECT_NAME":"STARLINK-3780","DECAY_DATE":null,"REV_AT_EPOCH":"130","SITE":"AFETR","ARG_OF_PERICENTER":"68.3815","TLE_LINE1":"1 52278U 22041T   22244.91667824 -.00054141  00000-0 -34071-2 0  9994","CLASSIFICATION_TYPE":"U","BSTAR":"-0.00340710000000","ECCENTRICITY":"0.00020950","RCS_SIZE":"LARGE","ELEMENT_SET_NO":"999","OBJECT_TYPE":"PAYLOAD","TIME_SYSTEM":"UTC","LAUNCH_DATE":"2022-04-21","GP_ID":"211505579","COUNTRY_CODE":"US","RA_OF_ASC_NODE":"116.6848","REF_FRAME":"TEME","MEAN_MOTION_DDOT":"0.0000000000000","TLE_LINE2":"2 52278  53.2171 116.6848 0002095  68.3815 156.4801 15.08863513  1305","NORAD_CAT_ID":"52278","SEMIMAJOR_AXIS":"6917.809","MEAN_MOTION":"15.08863513","MEAN_ANOMALY":"156.4801","PERIOD":"95.436","EPHEMERIS_TYPE":"0","CENTER_NAME":"EARTH","APOAPSIS":"541.123","EPOCH":"2022-09-01T22:00:00.999936","INCLINATION":"53.2171"},{"REF_FRAME":"TEME","RA_OF_ASC_NODE":"116.6817","COUNTRY_CODE":"US","TLE_LINE2":"2 52279  53.2180 116.6817 0001851  61.0568 118.5641 15.08870762  1301","MEAN_MOTION_DDOT":"0.0000000000000","OBJECT_TYPE":"PAYLOAD","GP_ID":"211505329","LAUNCH_DATE":"2022-04-21","TIME_SYSTEM":"UTC","CENTER_NAME":"EARTH","EPHEMERIS_TYPE":"0","PERIOD":"95.436","EPOCH":"2022-09-01T22:00:00.999936","INCLINATION":"53.2180","APOAPSIS":"540.932","SEMIMAJOR_AXIS":"6917.786","NORAD_CAT_ID":"52279","MEAN_ANOMALY":"118.5641","MEAN_MOTION":"15.08870762","OBJECT_NAME":"STARLINK-3686","ARG_OF_PERICENTER":"61.0568","TLE_LINE1":"1 52279U 22041U   22244.91667824 -.00054989  00000-0 -34605-2 0  9998","REV_AT_EPOCH":"130","SITE":"AFETR","DECAY_DATE":null,"OBJECT_ID":"2022-041U","MEAN_MOTION_DOT":"-0.00054989","PERIAPSIS":"538.371","FILE":"3554009","MEAN_ELEMENT_THEORY":"SGP4","ELEMENT_SET_NO":"999","ECCENTRICITY":"0.00018510","BSTAR":"-0.00346050000000","CLASSIFICATION_TYPE":"U","RCS_SIZE":"LARGE"},{"OBJECT_NAME":"STARLINK-3764","TLE_LINE1":"1 52280U 22041V   22244.91667824 -.00008698  00000-0 -52903-3 0  9998","ARG_OF_PERICENTER":"61.1651","SITE":"AFETR","REV_AT_EPOCH":"2163","DECAY_DATE":null,"OBJECT_ID":"2022-041V","MEAN_MOTION_DOT":"-0.00008698","PERIAPSIS":"538.007","FILE":"3553786","MEAN_ELEMENT_THEORY":"SGP4","ELEMENT_SET_NO":"999","ECCENTRICITY":"0.00025250","BSTAR":"-0.00052903000000","CLASSIFICATION_TYPE":"U","RCS_SIZE":"LARGE","REF_FRAME":"TEME","RA_OF_ASC_NODE":"116.6997","COUNTRY_CODE":"US","TLE_LINE2":"2 52280  53.2173 116.6997 0002525  61.1651 223.6909 15.08837122 21633","MEAN_MOTION_DDOT":"0.0000000000000","OBJECT_TYPE":"PAYLOAD","GP_ID":"211476176","LAUNCH_DATE":"2022-04-21","TIME_SYSTEM":"UTC","CENTER_NAME":"EARTH","EPHEMERIS_TYPE":"0","PERIOD":"95.438","INCLINATION":"53.2173","EPOCH":"2022-09-01T22:00:00.999936","APOAPSIS":"541.501","SEMIMAJOR_AXIS":"6917.889","NORAD_CAT_ID":"52280","MEAN_ANOMALY":"223.6909","MEAN_MOTION":"15.08837122"}];
